CCSDS_OMM_VERS = 2.0
CREATION_DATE  = 
ORIGINATOR     = 

OBJECT_NAME    = STARLINK-35943
OBJECT_ID      = 2025-286C
CENTER_NAME    = EARTH
REF_FRAME      = TEME
TIME_SYSTEM    = UTC
MEAN_ELEMENT_THEORY = SGP/SGP4

EPOCH          = 2025-12-20T06:00:02.999808
MEAN_MOTION    = 15.77915437
ECCENTRICITY   = .0001111
INCLINATION    = 53.1563
RA_OF_ASC_NODE = 12.7197
ARG_OF_PERICENTER = 85.2017
MEAN_ANOMALY   = 151.3413

EPHEMERIS_TYPE = 0
CLASSIFICATION_TYPE = U
NORAD_CAT_ID   = 66927
ELEMENT_SET_NO = 999
REV_AT_EPOCH   = 319
BSTAR          = -.92218712E-2
MEAN_MOTION_DOT = -.1412861E-1
MEAN_MOTION_DDOT = 0

CCSDS_OMM_VERS = 2.0
CREATION_DATE  = 
ORIGINATOR     = 

OBJECT_NAME    = STARLINK-35944
OBJECT_ID      = 2025-286D
CENTER_NAME    = EARTH
REF_FRAME      = TEME
TIME_SYSTEM    = UTC
MEAN_ELEMENT_THEORY = SGP/SGP4

EPOCH          = 2025-12-20T06:00:02.999808
MEAN_MOTION    = 15.77966752
ECCENTRICITY   = .00009095
INCLINATION    = 53.1560
RA_OF_ASC_NODE = 12.7281
ARG_OF_PERICENTER = 82.5726
MEAN_ANOMALY   = 149.8139

EPHEMERIS_TYPE = 0
CLASSIFICATION_TYPE = U
NORAD_CAT_ID   = 66928
ELEMENT_SET_NO = 999
REV_AT_EPOCH   = 319
BSTAR          = -.9078566E-2
MEAN_MOTION_DOT = -.1396111E-1
MEAN_MOTION_DDOT = 0

CCSDS_OMM_VERS = 2.0
CREATION_DATE  = 
ORIGINATOR     = 

OBJECT_NAME    = STARLINK-36169
OBJECT_ID      = 2025-286E
CENTER_NAME    = EARTH
REF_FRAME      = TEME
TIME_SYSTEM    = UTC
MEAN_ELEMENT_THEORY = SGP/SGP4

EPOCH          = 2025-12-20T06:00:02.999808
MEAN_MOTION    = 15.77878061
ECCENTRICITY   = .00012227
INCLINATION    = 53.1562
RA_OF_ASC_NODE = 12.7148
ARG_OF_PERICENTER = 86.6876
MEAN_ANOMALY   = 151.9947

EPHEMERIS_TYPE = 0
CLASSIFICATION_TYPE = U
NORAD_CAT_ID   = 66929
ELEMENT_SET_NO = 999
REV_AT_EPOCH   = 319
BSTAR          = -.9292238E-2
MEAN_MOTION_DOT = -.1420352E-1
MEAN_MOTION_DDOT = 0

CCSDS_OMM_VERS = 2.0
CREATION_DATE  = 
ORIGINATOR     = 

OBJECT_NAME    = STARLINK-36206
OBJECT_ID      = 2025-286F
CENTER_NAME    = EARTH
REF_FRAME      = TEME
TIME_SYSTEM    = UTC
MEAN_ELEMENT_THEORY = SGP/SGP4

EPOCH          = 2025-12-20T06:00:02.999808
MEAN_MOTION    = 15.77854908
ECCENTRICITY   = .00008359
INCLINATION    = 53.1562
RA_OF_ASC_NODE = 12.7104
ARG_OF_PERICENTER = 92.1625
MEAN_ANOMALY   = 148.5602

EPHEMERIS_TYPE = 0
CLASSIFICATION_TYPE = U
NORAD_CAT_ID   = 66930
ELEMENT_SET_NO = 999
REV_AT_EPOCH   = 319
BSTAR          = -.93044998E-2
MEAN_MOTION_DOT = -.1420466E-1
MEAN_MOTION_DDOT = 0

CCSDS_OMM_VERS = 2.0
CREATION_DATE  = 
ORIGINATOR     = 

OBJECT_NAME    = STARLINK-36130
OBJECT_ID      = 2025-286G
CENTER_NAME    = EARTH
REF_FRAME      = TEME
TIME_SYSTEM    = UTC
MEAN_ELEMENT_THEORY = SGP/SGP4

EPOCH          = 2025-12-20T06:00:02.999808
MEAN_MOTION    = 15.77813583
ECCENTRICITY   = .00011559
INCLINATION    = 53.1560
RA_OF_ASC_NODE = 12.7060
ARG_OF_PERICENTER = 90.6469
MEAN_ANOMALY   = 152.2371

EPHEMERIS_TYPE = 0
CLASSIFICATION_TYPE = U
NORAD_CAT_ID   = 66931
ELEMENT_SET_NO = 999
REV_AT_EPOCH   = 319
BSTAR          = -.94183984E-2
MEAN_MOTION_DOT = -.1433673E-1
MEAN_MOTION_DDOT = 0

CCSDS_OMM_VERS = 2.0
CREATION_DATE  = 
ORIGINATOR     = 

OBJECT_NAME    = STARLINK-36177
OBJECT_ID      = 2025-286H
CENTER_NAME    = EARTH
REF_FRAME      = TEME
TIME_SYSTEM    = UTC
MEAN_ELEMENT_THEORY = SGP/SGP4

EPOCH          = 2025-12-20T06:00:02.999808
MEAN_MOTION    = 15.77767369
ECCENTRICITY   = .00011033
INCLINATION    = 53.1562
RA_OF_ASC_NODE = 12.7016
ARG_OF_PERICENTER = 81.0058
MEAN_ANOMALY   = 164.0163

EPHEMERIS_TYPE = 0
CLASSIFICATION_TYPE = U
NORAD_CAT_ID   = 66932
ELEMENT_SET_NO = 999
REV_AT_EPOCH   = 319
BSTAR          = -.94630455E-2
MEAN_MOTION_DOT = -.1436994E-1
MEAN_MOTION_DDOT = 0

CCSDS_OMM_VERS = 2.0
CREATION_DATE  = 
ORIGINATOR     = 

OBJECT_NAME    = STARLINK-36157
OBJECT_ID      = 2025-286J
CENTER_NAME    = EARTH
REF_FRAME      = TEME
TIME_SYSTEM    = UTC
MEAN_ELEMENT_THEORY = SGP/SGP4

EPOCH          = 2025-12-20T06:00:02.999808
MEAN_MOTION    = 15.77731514
ECCENTRICITY   = .00008971
INCLINATION    = 53.1563
RA_OF_ASC_NODE = 12.6972
ARG_OF_PERICENTER = 70.7684
MEAN_ANOMALY   = 176.3666

EPHEMERIS_TYPE = 0
CLASSIFICATION_TYPE = U
NORAD_CAT_ID   = 66933
ELEMENT_SET_NO = 999
REV_AT_EPOCH   = 319
BSTAR          = -.95343848E-2
MEAN_MOTION_DOT = -.1444375E-1
MEAN_MOTION_DDOT = 0

CCSDS_OMM_VERS = 2.0
CREATION_DATE  = 
ORIGINATOR     = 

OBJECT_NAME    = STARLINK-36153
OBJECT_ID      = 2025-286K
CENTER_NAME    = EARTH
REF_FRAME      = TEME
TIME_SYSTEM    = UTC
MEAN_ELEMENT_THEORY = SGP/SGP4

EPOCH          = 2025-12-20T06:00:02.999808
MEAN_MOTION    = 15.77695844
ECCENTRICITY   = .00011893
INCLINATION    = 53.1560
RA_OF_ASC_NODE = 12.6923
ARG_OF_PERICENTER = 78.5905
MEAN_ANOMALY   = 170.6645

EPHEMERIS_TYPE = 0
CLASSIFICATION_TYPE = U
NORAD_CAT_ID   = 66934
ELEMENT_SET_NO = 999
REV_AT_EPOCH   = 319
BSTAR          = -.96499732E-2
MEAN_MOTION_DOT = -.1457938E-1
MEAN_MOTION_DDOT = 0

CCSDS_OMM_VERS = 2.0
CREATION_DATE  = 
ORIGINATOR     = 

OBJECT_NAME    = STARLINK-36127
OBJECT_ID      = 2025-286L
CENTER_NAME    = EARTH
REF_FRAME      = TEME
TIME_SYSTEM    = UTC
MEAN_ELEMENT_THEORY = SGP/SGP4

EPOCH          = 2025-12-20T06:00:02.999808
MEAN_MOTION    = 15.77630721
ECCENTRICITY   = .00010223
INCLINATION    = 53.1558
RA_OF_ASC_NODE = 12.6879
ARG_OF_PERICENTER = 91.5091
MEAN_ANOMALY   = 159.9716

EPHEMERIS_TYPE = 0
CLASSIFICATION_TYPE = U
NORAD_CAT_ID   = 66935
ELEMENT_SET_NO = 999
REV_AT_EPOCH   = 319
BSTAR          = -.97339574E-2
MEAN_MOTION_DOT = -.1465216E-1
MEAN_MOTION_DDOT = 0

CCSDS_OMM_VERS = 2.0
CREATION_DATE  = 
ORIGINATOR     = 

OBJECT_NAME    = STARLINK-36160
OBJECT_ID      = 2025-286M
CENTER_NAME    = EARTH
REF_FRAME      = TEME
TIME_SYSTEM    = UTC
MEAN_ELEMENT_THEORY = SGP/SGP4

EPOCH          = 2025-12-20T06:00:02.999808
MEAN_MOTION    = 15.77599573
ECCENTRICITY   = .00009523
INCLINATION    = 53.1559
RA_OF_ASC_NODE = 12.6838
ARG_OF_PERICENTER = 69.8107
MEAN_ANOMALY   = 183.7276

EPHEMERIS_TYPE = 0
CLASSIFICATION_TYPE = U
NORAD_CAT_ID   = 66936
ELEMENT_SET_NO = 999
REV_AT_EPOCH   = 319
BSTAR          = -.97493085E-2
MEAN_MOTION_DOT = -.1465391E-1
MEAN_MOTION_DDOT = 0

CCSDS_OMM_VERS = 2.0
CREATION_DATE  = 
ORIGINATOR     = 

OBJECT_NAME    = STARLINK-36165
OBJECT_ID      = 2025-286N
CENTER_NAME    = EARTH
REF_FRAME      = TEME
TIME_SYSTEM    = UTC
MEAN_ELEMENT_THEORY = SGP/SGP4

EPOCH          = 2025-12-20T06:00:02.999808
MEAN_MOTION    = 15.77569717
ECCENTRICITY   = .00010517
INCLINATION    = 53.1558
RA_OF_ASC_NODE = 12.6791
ARG_OF_PERICENTER = 75.0423
MEAN_ANOMALY   = 180.5669

EPHEMERIS_TYPE = 0
CLASSIFICATION_TYPE = U
NORAD_CAT_ID   = 66937
ELEMENT_SET_NO = 999
REV_AT_EPOCH   = 319
BSTAR          = -.98287312E-2
MEAN_MOTION_DOT = -.1474221E-1
MEAN_MOTION_DDOT = 0

CCSDS_OMM_VERS = 2.0
CREATION_DATE  = 
ORIGINATOR     = 

OBJECT_NAME    = STARLINK-36155
OBJECT_ID      = 2025-286P
CENTER_NAME    = EARTH
REF_FRAME      = TEME
TIME_SYSTEM    = UTC
MEAN_ELEMENT_THEORY = SGP/SGP4

EPOCH          = 2025-12-20T06:00:02.999808
MEAN_MOTION    = 15.77539283
ECCENTRICITY   = .00008815
INCLINATION    = 53.1558
RA_OF_ASC_NODE = 12.6745
ARG_OF_PERICENTER = 74.0286
MEAN_ANOMALY   = 183.6553

EPHEMERIS_TYPE = 0
CLASSIFICATION_TYPE = U
NORAD_CAT_ID   = 66938
ELEMENT_SET_NO = 999
REV_AT_EPOCH   = 319
BSTAR          = -.99114956E-2
MEAN_MOTION_DOT = -.1483247E-1
MEAN_MOTION_DDOT = 0

