STARLINK-35943          
1 66927U 25286C   25354.25003472 -.01412861  00000+0 -92219-2 0  9994
2 66927  53.1563  12.7197 0001111  85.2017 151.3413 15.77915437  3199
STARLINK-35944          
1 66928U 25286D   25354.25003472 -.01396111  00000+0 -90786-2 0  9991
2 66928  53.1560  12.7281 0000909  82.5726 149.8139 15.77966752  3195
STARLINK-36169          
1 66929U 25286E   25354.25003472 -.01420352  00000+0 -92922-2 0  9991
2 66929  53.1562  12.7148 0001222  86.6876 151.9947 15.77878061  3196
STARLINK-36206          
1 66930U 25286F   25354.25003472 -.01420466  00000+0 -93045-2 0  9996
2 66930  53.1562  12.7104 0000835  92.1625 148.5602 15.77854908  3197
STARLINK-36130          
1 66931U 25286G   25354.25003472 -.01433673  00000+0 -94184-2 0  9996
2 66931  53.1560  12.7060 0001155  90.6469 152.2371 15.77813583  3191
STARLINK-36177          
1 66932U 25286H   25354.25003472 -.01436994  00000+0 -94630-2 0  9992
2 66932  53.1562  12.7016 0001103  81.0058 164.0163 15.77767369  3196
STARLINK-36157          
1 66933U 25286J   25354.25003472 -.01444375  00000+0 -95344-2 0  9998
2 66933  53.1563  12.6972 0000897  70.7684 176.3666 15.77731514  3194
STARLINK-36153          
1 66934U 25286K   25354.25003472 -.01457938  00000+0 -96500-2 0  9993
2 66934  53.1560  12.6923 0001189  78.5905 170.6645 15.77695844  3194
STARLINK-36127          
1 66935U 25286L   25354.25003472 -.01465216  00000+0 -97340-2 0  9995
2 66935  53.1558  12.6879 0001022  91.5091 159.9716 15.77630721  3191
STARLINK-36160          
1 66936U 25286M   25354.25003472 -.01465391  00000+0 -97493-2 0  9999
2 66936  53.1559  12.6838 0000952  69.8107 183.7276 15.77599573  3190
STARLINK-36165          
1 66937U 25286N   25354.25003472 -.01474221  00000+0 -98287-2 0  9994
2 66937  53.1558  12.6791 0001051  75.0423 180.5669 15.77569717  3197
STARLINK-36155          
1 66938U 25286P   25354.25003472 -.01483247  00000+0 -99115-2 0  9994
2 66938  53.1558  12.6745 0000881  74.0286 183.6553 15.77539283  3194
